NORAD_CAT_ID,OBJECT_NAME,OBJECT_TYPE,EPOCH,MEAN_MOTION,ECCENTRICITY,INCLINATION,RA_OF_ASC_NODE,ARG_OF_PERICENTER,MEAN_ANOMALY,BSTAR,MEAN_MOTION_DOT,MEAN_MOTION_DDOT,TLE_LINE0,TLE_LINE1,TLE_LINE2,SEMIMAJOR_AXIS,PERIOD,APOGEE,PERIGEE,DECAYED
55745.0,STARLINK-5565,PAYLOAD,2024-05-21 23:02:32,14.98324118,0.0003219,69.9987,100.4984,274.0812,85.9979,0.00022585,2.602e-05,0.0,0 STARLINK-5565,1 55745U 23028E   24142.96009833  .00002602  00000-0  22585-3 0  9997,2 55745  69.9987 100.4984 0003219 274.0812  85.9979 14.98324118 67664,6950.211,96.107,574.313,569.839,0.0
55745.0,STARLINK-5565,PAYLOAD,2024-05-22 03:50:56,14.9832718,0.0003196,69.9987,99.9933,273.8477,86.2316,0.00027365,3.173e-05,0.0,0 STARLINK-5565,1 55745U 23028E   24143.16037804  .00003173  00000-0  27365-3 0  9994,2 55745  69.9987  99.9933 0003196 273.8477  86.2316 14.98327180 67692,6950.202,96.107,574.288,569.845,0.0
55745.0,STARLINK-5565,PAYLOAD,2024-05-22 07:03:12,14.98332676,0.0003172,69.9999,99.6567,274.3,85.7796,0.00037209,4.35e-05,0.0,0 STARLINK-5565,1 55745U 23028E   24143.29389858  .00004350  00000-0  37209-3 0  9993,2 55745  69.9999  99.6567 0003172 274.3000  85.7796 14.98332676 67712,6950.185,96.107,574.254,569.845,0.0
55745.0,STARLINK-5565,PAYLOAD,2024-05-22 21:28:25,14.98330708,0.0002933,70.0006,98.1431,268.2857,91.7966,0.00019255,2.205e-05,0.0,0 STARLINK-5565,1 55745U 23028E   24143.89474020  .00002205  00000-0  19255-3 0  9993,2 55745  70.0006  98.1431 0002933 268.2857  91.7966 14.98330708 67804,6950.191,96.107,574.094,570.017,0.0
55745.0,STARLINK-5565,PAYLOAD,2024-05-23 03:52:57,14.98331973,0.0002944,70.0007,97.4696,267.5124,92.5698,0.00018415,2.105e-05,0.0,0 STARLINK-5565,1 55745U 23028E   24144.16177956  .00002105  00000-0  18415-3 0  9998,2 55745  70.0007  97.4696 0002944 267.5124  92.5698 14.98331973 67841,6950.187,96.107,574.098,570.006,0.0
55745.0,STARLINK-5565,PAYLOAD,2024-05-23 07:05:13,14.98332903,0.0002943,70.0007,97.1328,267.7752,92.307,0.00018681,2.137e-05,0.0,0 STARLINK-5565,1 55745U 23028E   24144.29529909  .00002137  00000-0  18681-3 0  9991,2 55745  70.0007  97.1328 0002943 267.7752  92.3070 14.98332903 67866,6950.184,96.107,574.094,570.003,0.0
55745.0,STARLINK-5565,PAYLOAD,2024-05-23 21:30:26,14.98335573,0.0002806,70.0011,95.6184,261.2186,98.8656,0.00011205,1.244e-05,0.0,0 STARLINK-5565,1 55745U 23028E   24144.89613663  .00001244  00000-0  11205-3 0  9991,2 55745  70.0011  95.6184 0002806 261.2186  98.8656 14.98335573 67959,6950.176,96.107,573.991,570.09,0.0
55745.0,STARLINK-5565,PAYLOAD,2024-05-24 03:54:58,14.98335128,0.0002826,69.9998,94.9452,260.0657,100.0183,9.9707e-05,1.097e-05,0.0,0 STARLINK-5565,1 55745U 23028E   24145.16317707  .00001097  00000-0  99707-4 0  9992,2 55745  69.9998  94.9452 0002826 260.0657 100.0183 14.98335128 67993,6950.177,96.107,574.006,570.078,0.0
55745.0,STARLINK-5565,PAYLOAD,2024-05-24 07:07:14,14.98334872,0.0002827,69.9997,94.6081,262.9002,97.1835,8.5788e-05,9.31e-06,0.0,0 STARLINK-5565,1 55745U 23028E   24145.29669689  .00000931  00000-0  85788-4 0  9995,2 55745  69.9997  94.6081 0002827 262.9002  97.1835 14.98334872 68012,6950.178,96.107,574.008,570.078,0.0
55745.0,STARLINK-5565,PAYLOAD,2024-05-24 21:32:27,14.9832943,0.0002769,69.9998,93.0928,260.06,100.0247,7.4256e-05,7.93e-06,0.0,0 STARLINK-5565,1 55745U 23028E   24145.89753967  .00000793  00000-0  74256-4 0  9998,2 55745  69.9998  93.0928 0002769 260.0600 100.0247 14.98329430 68109,6950.195,96.107,573.984,570.135,0.0
55745.0,STARLINK-5565,PAYLOAD,2024-05-25 03:56:59,14.98327765,0.0002809,69.9998,92.4198,259.6623,100.4219,3.2247e-05,2.92e-06,0.0,0 STARLINK-5565,1 55745U 23028E   24146.16458104  .00000292  00000-0  32247-4 0  9992,2 55745  69.9998  92.4198 0002809 259.6623 100.4219 14.98327765 68141,6950.2,96.107,574.017,570.112,0.0
55745.0,STARLINK-5565,PAYLOAD,2024-05-25 13:33:48,14.98328606,0.0002722,70.0,91.4096,265.817,94.2678,4.3922e-05,4.31e-06,0.0,0 STARLINK-5565,1 55745U 23028E   24146.56514186  .00000431  00000-0  43922-4 0  9996,2 55745  70.0000  91.4096 0002722 265.8170  94.2678 14.98328606 68205,6950.197,96.107,573.954,570.17,0.0
55745.0,STARLINK-5565,PAYLOAD,2024-05-26 03:59:00,14.98326525,0.0003066,69.9994,89.8945,266.7203,93.3605,0.00010374,1.145e-05,0.0,0 STARLINK-5565,1 55745U 23028E   24147.16598097  .00001145  00000-0  10374-3 0  9993,2 55745  69.9994  89.8945 0003066 266.7203  93.3605 14.98326525 68294,6950.204,96.107,574.2,569.938,0.0
55745.0,STARLINK-5565,PAYLOAD,2024-05-26 07:11:16,14.98330865,0.0002974,69.9995,89.5578,267.232,92.8498,4.201e-05,4.08e-06,0.0,0 STARLINK-5565,1 55745U 23028E   24147.29949958  .00000408  00000-0  42010-4 0  9997,2 55745  69.9995  89.5578 0002974 267.2320  92.8498 14.98330865 68316,6950.19,96.107,574.122,569.988,0.0
55745.0,STARLINK-5565,PAYLOAD,2024-05-26 23:12:37,14.98330362,0.0003023,69.9995,87.8745,270.1341,89.9472,0.00010002,1.101e-05,0.0,0 STARLINK-5565,1 55745U 23028E   24147.96709869  .00001101  00000-0  10002-3 0  9992,2 55745  69.9995  87.8745 0003023 270.1341  89.9472 14.98330362 68417,6950.192,96.107,574.158,569.956,0.0
55745.0,STARLINK-5565,PAYLOAD,2024-05-27 04:01:01,14.98331454,0.0003018,69.9996,87.3695,270.0044,90.077,0.00010835,1.2e-05,0.0,0 STARLINK-5565,1 55745U 23028E   24148.16737791  .00001200  00000-0  10835-3 0  9994,2 55745  69.9996  87.3695 0003018 270.0044  90.0770 14.98331454 68440,6950.188,96.107,574.151,569.956,0.0
55745.0,STARLINK-5565,PAYLOAD,2024-05-27 13:37:49,14.98326785,0.0003052,69.9995,86.3588,263.507,96.5742,0.00016153,1.835e-05,0.0,0 STARLINK-5565,1 55745U 23028E   24148.56793891  .00001835  00000-0  16153-3 0  9994,2 55745  69.9995  86.3588 0003052 263.5070  96.5742 14.98326785 68501,6950.203,96.107,574.189,569.947,0.0
55745.0,STARLINK-5565,PAYLOAD,2024-05-27 21:38:30,14.98329065,0.0002955,69.9998,85.5179,267.4305,92.6516,6.1209e-05,6.37e-06,0.0,0 STARLINK-5565,1 55745U 23028E   24148.90173986  .00000637  00000-0  61209-4 0  9991,2 55745  69.9998  85.5179 0002955 267.4305  92.6516 14.98329065 68551,6950.196,96.107,574.115,570.007,0.0
55745.0,STARLINK-5565,PAYLOAD,2024-05-28 04:03:02,14.98329949,0.0002961,69.9998,84.8446,267.5262,92.5558,6.5111e-05,6.84e-06,0.0,0 STARLINK-5565,1 55745U 23028E   24149.16877937  .00000684  00000-0  65111-4 0  9995,2 55745  69.9998  84.8446 0002961 267.5262  92.5558 14.98329949 68590,6950.193,96.107,574.116,570.0,0.0
55745.0,STARLINK-5565,PAYLOAD,2024-05-28 05:39:10,14.98329897,0.0002972,69.9998,84.6763,268.0233,92.0586,6.2053e-05,6.47e-06,0.0,0 STARLINK-5565,1 55745U 23028E   24149.23553947  .00000647  00000-0  62053-4 0  9996,2 55745  69.9998  84.6763 0002972 268.0233  92.0586 14.98329897 68606,6950.193,96.107,574.124,569.993,0.0
55745.0,STARLINK-5565,PAYLOAD,2024-05-28 20:04:22,14.98333173,0.0002963,69.9999,83.1612,268.8315,91.2505,4.6732e-05,4.65e-06,0.0,0 STARLINK-5565,1 55745U 23028E   24149.83637701  .00000465  00000-0  46732-4 0  9997,2 55745  69.9999  83.1612 0002963 268.8315  91.2505 14.98333173 68696,6950.183,96.107,574.107,569.989,0.0
55745.0,STARLINK-5565,PAYLOAD,2024-05-29 04:05:03,14.98334094,0.0002942,69.9999,82.3199,268.2768,91.8054,5.3253e-05,5.43e-06,0.0,0 STARLINK-5565,1 55745U 23028E   24150.17017547  .00000543  00000-0  53253-4 0  9999,2 55745  69.9999  82.3199 0002942 268.2768  91.8054 14.98334094 68744,6950.18,96.107,574.09,570.0,0.0
55745.0,STARLINK-5565,PAYLOAD,2024-05-29 05:41:11,14.98334366,0.0002941,69.9999,82.1514,268.4242,91.658,5.5045e-05,5.64e-06,0.0,0 STARLINK-5565,1 55745U 23028E   24150.23693507  .00000564  00000-0  55045-4 0  9996,2 55745  69.9999  82.1514 0002941 268.4242  91.6580 14.98334366 68756,6950.179,96.107,574.088,570.0,0.0
55745.0,STARLINK-5565,PAYLOAD,2024-05-29 21:42:31,14.98331517,0.0002905,70.0,80.4684,268.0187,92.0639,6.4458e-05,6.76e-06,0.0,0 STARLINK-5565,1 55745U 23028E   24150.90453646  .00000676  00000-0  64458-4 0  9990,2 55745  70.0000  80.4684 0002905 268.0187  92.0639 14.98331517 68851,6950.188,96.107,574.072,570.034,0.0
55745.0,STARLINK-5565,PAYLOAD,2024-05-30 04:07:04,14.98333673,0.0002868,70.0,79.7952,267.0821,93.001,8.7075e-05,9.46e-06,0.0,0 STARLINK-5565,1 55745U 23028E   24151.17157422  .00000946  00000-0  87075-4 0  9993,2 55745  70.0000  79.7952 0002868 267.0821  93.0010 14.98333673 68895,6950.182,96.107,574.04,570.053,0.0
55745.0,STARLINK-5565,PAYLOAD,2024-05-30 05:43:12,14.98334785,0.0002853,70.0,79.6266,268.8241,91.2591,8.6754e-05,9.42e-06,0.0,0 STARLINK-5565,1 55745U 23028E   24151.23833413  .00000942  00000-0  86754-4 0  9990,2 55745  70.0000  79.6266 0002853 268.8241  91.2591 14.98334785 68902,6950.178,96.107,574.026,570.06,0.0
55745.0,STARLINK-5565,PAYLOAD,2024-05-30 21:44:32,14.98333587,0.0002738,70.0003,77.9439,263.0983,96.9865,5.3795e-05,5.49e-06,0.0,0 STARLINK-5565,1 55745U 23028E   24151.90593411  .00000549  00000-0  53795-4 0  9997,2 55745  70.0003  77.9439 0002738 263.0983  96.9865 14.98333587 69007,6950.182,96.107,573.95,570.144,0.0
55745.0,STARLINK-5565,PAYLOAD,2024-05-31 04:09:00,14.98391909,0.0002962,70.0004,77.2706,269.5743,90.5077,0.00070347,8.324e-05,0.0,0 STARLINK-5565,1 55745U 23028E   24152.17292166  .00008324  00000-0  70347-3 0  9990,2 55745  70.0004  77.2706 0002962 269.5743  90.5077 14.98391909 69043,6950.001,96.103,573.925,569.808,0.0
55745.0,STARLINK-5565,PAYLOAD,2024-05-31 18:33:46,14.98671544,0.000303,70.0002,75.7537,273.9226,86.1586,0.003524,0.00042587,0.0,0 STARLINK-5565,1 55745U 23028E   24152.77345526  .00042587  00000-0  35240-2 0  9996,2 55745  70.0002  75.7537 0003030 273.9226  86.1586 14.98671544 69130,6949.137,96.085,573.107,568.896,0.0
55745.0,STARLINK-5565,PAYLOAD,2024-05-31 20:09:48,14.98737195,0.0002359,70.0002,75.5852,259.0494,101.04,0.004178,0.0005065,0.0,0 STARLINK-5565,1 55745U 23028E   24152.84014153  .00050650  00000-0  41780-2 0  9999,2 55745  70.0002  75.5852 0002359 259.0494 101.0400 14.98737195 69141,6948.934,96.081,572.438,569.16,0.0
